[{"OBJECT_NAME":"ALOS (DAICHI)","OBJECT_ID":"2006-002A","EPOCH":"2026-03-09T20:14:22.842816","MEAN_MOTION":14.69811163,"ECCENTRICITY":9.045e-5,"INCLINATION":98.1218,"RA_OF_ASC_NODE":24.7979,"ARG_OF_PERICENTER":55.8758,"MEAN_ANOMALY":304.2533,"EPHEMERIS_TYPE":0,"CLASSIFICATION_TYPE":"U","NORAD_CAT_ID":28931,"ELEMENT_SET_NO":999,"REV_AT_EPOCH":7350,"BSTAR":0.00032296065,"MEAN_MOTION_DOT":1.879e-5,"MEAN_MOTION_DDOT":0},{"OBJECT_NAME":"H-2A R/B","OBJECT_ID":"2006-002B","EPOCH":"2026-03-09T22:32:18.942432","MEAN_MOTION":15.16426804,"ECCENTRICITY":0.0051895,"INCLINATION":98.2413,"RA_OF_ASC_NODE":215.9838,"ARG_OF_PERICENTER":240.1322,"MEAN_ANOMALY":119.4746,"EPHEMERIS_TYPE":0,"CLASSIFICATION_TYPE":"U","NORAD_CAT_ID":28932,"ELEMENT_SET_NO":999,"REV_AT_EPOCH":9447,"BSTAR":0.00057793,"MEAN_MOTION_DOT":0.00011556,"MEAN_MOTION_DDOT":0},{"OBJECT_NAME":"RESURS-DK 1","OBJECT_ID":"2006-021A","EPOCH":"2026-03-09T20:47:10.198464","MEAN_MOTION":15.12746011,"ECCENTRICITY":0.00018726,"INCLINATION":69.9317,"RA_OF_ASC_NODE":236.5664,"ARG_OF_PERICENTER":163.0233,"MEAN_ANOMALY":197.0996,"EPHEMERIS_TYPE":0,"CLASSIFICATION_TYPE":"U","NORAD_CAT_ID":29228,"ELEMENT_SET_NO":999,"REV_AT_EPOCH":8755,"BSTAR":0.00024045463,"MEAN_MOTION_DOT":4.119e-5,"MEAN_MOTION_DDOT":0},{"OBJECT_NAME":"CZ-4B R/B","OBJECT_ID":"2006-046C","EPOCH":"2026-03-10T03:17:11.537376","MEAN_MOTION":15.16910437,"ECCENTRICITY":0.0031696,"INCLINATION":97.5597,"RA_OF_ASC_NODE":114.0449,"ARG_OF_PERICENTER":265.657,"MEAN_ANOMALY":94.1041,"EPHEMERIS_TYPE":0,"CLASSIFICATION_TYPE":"U","NORAD_CAT_ID":29507,"ELEMENT_SET_NO":999,"REV_AT_EPOCH":6011,"BSTAR":0.00030893,"MEAN_MOTION_DOT":6.097e-5,"MEAN_MOTION_DDOT":0},{"OBJECT_NAME":"CZ-2C R/B","OBJECT_ID":"2007-010B","EPOCH":"2026-03-10T03:33:58.423104","MEAN_MOTION":14.20246342,"ECCENTRICITY":0.0057939,"INCLINATION":98.3979,"RA_OF_ASC_NODE":182.4043,"ARG_OF_PERICENTER":293.2424,"MEAN_ANOMALY":66.266,"EPHEMERIS_TYPE":0,"CLASSIFICATION_TYPE":"U","NORAD_CAT_ID":31114,"ELEMENT_SET_NO":999,"REV_AT_EPOCH":97978,"BSTAR":9.3767e-5,"MEAN_MOTION_DOT":1.62e-6,"MEAN_MOTION_DDOT":0},{"OBJECT_NAME":"COSMO-SKYMED 1","OBJECT_ID":"2007-023A","EPOCH":"2026-03-10T04:47:05.871264","MEAN_MOTION":14.96539239,"ECCENTRICITY":0.0001297,"INCLINATION":97.8874,"RA_OF_ASC_NODE":260.235,"ARG_OF_PERICENTER":100.0315,"MEAN_ANOMALY":260.1052,"EPHEMERIS_TYPE":0,"CLASSIFICATION_TYPE":"U","NORAD_CAT_ID":31598,"ELEMENT_SET_NO":999,"REV_AT_EPOCH":1498,"BSTAR":0.00038556,"MEAN_MOTION_DOT":4.326e-5,"MEAN_MOTION_DDOT":0},{"OBJECT_NAME":"COSMOS 2428","OBJECT_ID":"2007-029A","EPOCH":"2026-03-10T04:07:30.141696","MEAN_MOTION":14.12946296,"ECCENTRICITY":0.0009124,"INCLINATION":70.9433,"RA_OF_ASC_NODE":202.3306,"ARG_OF_PERICENTER":276.4696,"MEAN_ANOMALY":83.5386,"EPHEMERIS_TYPE":0,"CLASSIFICATION_TYPE":"U","NORAD_CAT_ID":31792,"ELEMENT_SET_NO":999,"REV_AT_EPOCH":96416,"BSTAR":6.207e-5,"MEAN_MOTION_DOT":6.8e-7,"MEAN_MOTION_DDOT":0},{"OBJECT_NAME":"SL-16 R/B","OBJECT_ID":"2007-029B","EPOCH":"2026-03-09T17:09:01.618848","MEAN_MOTION":14.14833325,"ECCENTRICITY":0.00023077,"INCLINATION":70.9759,"RA_OF_ASC_NODE":172.3325,"ARG_OF_PERICENTER":276.2204,"MEAN_ANOMALY":193.3696,"EPHEMERIS_TYPE":0,"CLASSIFICATION_TYPE":"U","NORAD_CAT_ID":31793,"ELEMENT_SET_NO":999,"REV_AT_EPOCH":96537,"BSTAR":4.7723094e-5,"MEAN_MOTION_DOT":4.4e-7,"MEAN_MOTION_DDOT":0},{"OBJECT_NAME":"KORONAS-FOTON","OBJECT_ID":"2009-003A","EPOCH":"2026-03-10T00:34:03.218304","MEAN_MOTION":15.43329428,"ECCENTRICITY":0.0011332,"INCLINATION":82.4278,"RA_OF_ASC_NODE":275.5305,"ARG_OF_PERICENTER":148.5286,"MEAN_ANOMALY":211.6641,"EPHEMERIS_TYPE":0,"CLASSIFICATION_TYPE":"U","NORAD_CAT_ID":33504,"ELEMENT_SET_NO":999,"REV_AT_EPOCH":94579,"BSTAR":0.00024919,"MEAN_MOTION_DOT":0.00011166,"MEAN_MOTION_DDOT":0},{"OBJECT_NAME":"CZ-2C R/B","OBJECT_ID":"2011-030B","EPOCH":"2026-03-09T21:09:37.668672","MEAN_MOTION":14.81223932,"ECCENTRICITY":0.00523791,"INCLINATION":97.8549,"RA_OF_ASC_NODE":26.141,"ARG_OF_PERICENTER":351.4471,"MEAN_ANOMALY":67.3026,"EPHEMERIS_TYPE":0,"CLASSIFICATION_TYPE":"U","NORAD_CAT_ID":37731,"ELEMENT_SET_NO":999,"REV_AT_EPOCH":79012,"BSTAR":0.00028919779,"MEAN_MOTION_DOT":2.251e-5,"MEAN_MOTION_DDOT":0},{"OBJECT_NAME":"H-2A R/B","OBJECT_ID":"2012-025E","EPOCH":"2026-03-09T20:41:54.522240","MEAN_MOTION":14.95172532,"ECCENTRICITY":0.00433117,"INCLINATION":98.4741,"RA_OF_ASC_NODE":35.9227,"ARG_OF_PERICENTER":313.9175,"MEAN_ANOMALY":45.8471,"EPHEMERIS_TYPE":0,"CLASSIFICATION_TYPE":"U","NORAD_CAT_ID":38341,"ELEMENT_SET_NO":999,"REV_AT_EPOCH":74824,"BSTAR":0.00044934548,"MEAN_MOTION_DOT":4.959e-5,"MEAN_MOTION_DDOT":0},{"OBJECT_NAME":"SHIJIAN-16 (SJ-16)","OBJECT_ID":"2013-057A","EPOCH":"2026-03-10T03:58:06.057696","MEAN_MOTION":14.92354056,"ECCENTRICITY":0.00154,"INCLINATION":74.9735,"RA_OF_ASC_NODE":184.1873,"ARG_OF_PERICENTER":111.1568,"MEAN_ANOMALY":249.1268,"EPHEMERIS_TYPE":0,"CLASSIFICATION_TYPE":"U","NORAD_CAT_ID":39358,"ELEMENT_SET_NO":999,"REV_AT_EPOCH":67157,"BSTAR":0.00050241,"MEAN_MOTION_DOT":5.125e-5,"MEAN_MOTION_DDOT":0},{"OBJECT_NAME":"SL-4 R/B","OBJECT_ID":"2014-021B","EPOCH":"2026-03-10T03:33:38.052576","MEAN_MOTION":15.39198695,"ECCENTRICITY":0.0097453,"INCLINATION":51.6079,"RA_OF_ASC_NODE":335.0419,"ARG_OF_PERICENTER":104.7108,"MEAN_ANOMALY":256.4701,"EPHEMERIS_TYPE":0,"CLASSIFICATION_TYPE":"U","NORAD_CAT_ID":39679,"ELEMENT_SET_NO":999,"REV_AT_EPOCH":65634,"BSTAR":0.00040816,"MEAN_MOTION_DOT":0.00018624,"MEAN_MOTION_DDOT":0},{"OBJECT_NAME":"ALOS-2","OBJECT_ID":"2014-029A","EPOCH":"2026-03-10T04:36:49.478976","MEAN_MOTION":14.79506129,"ECCENTRICITY":0.0001429,"INCLINATION":97.9191,"RA_OF_ASC_NODE":167.7817,"ARG_OF_PERICENTER":98.057,"MEAN_ANOMALY":262.0804,"EPHEMERIS_TYPE":0,"CLASSIFICATION_TYPE":"U","NORAD_CAT_ID":39766,"ELEMENT_SET_NO":999,"REV_AT_EPOCH":63694,"BSTAR":0.00024711,"MEAN_MOTION_DOT":1.796e-5,"MEAN_MOTION_DDOT":0},{"OBJECT_NAME":"YAOGAN-29","OBJECT_ID":"2015-069A","EPOCH":"2026-03-10T04:47:00.503232","MEAN_MOTION":14.82995928,"ECCENTRICITY":0.0001884,"INCLINATION":98.0143,"RA_OF_ASC_NODE":97.6304,"ARG_OF_PERICENTER":35.6067,"MEAN_ANOMALY":324.5272,"EPHEMERIS_TYPE":0,"CLASSIFICATION_TYPE":"U","NORAD_CAT_ID":41038,"ELEMENT_SET_NO":999,"REV_AT_EPOCH":55595,"BSTAR":4.3322e-5,"MEAN_MOTION_DOT":2.98e-6,"MEAN_MOTION_DDOT":0},{"OBJECT_NAME":"ASTRO-H (HITOMI)","OBJECT_ID":"2016-012A","EPOCH":"2026-03-09T23:09:02.707488","MEAN_MOTION":15.10008525,"ECCENTRICITY":0.0009848,"INCLINATION":31.0008,"RA_OF_ASC_NODE":354.7735,"ARG_OF_PERICENTER":333.7785,"MEAN_ANOMALY":26.2354,"EPHEMERIS_TYPE":0,"CLASSIFICATION_TYPE":"U","NORAD_CAT_ID":41337,"ELEMENT_SET_NO":999,"REV_AT_EPOCH":55227,"BSTAR":0.00025031,"MEAN_MOTION_DOT":4.267e-5,"MEAN_MOTION_DDOT":0},{"OBJECT_NAME":"HXMT (HUIYAN)","OBJECT_ID":"2017-034A","EPOCH":"2026-03-10T04:08:30.281280","MEAN_MOTION":15.17472996,"ECCENTRICITY":0.0032963,"INCLINATION":43.0157,"RA_OF_ASC_NODE":13.9886,"ARG_OF_PERICENTER":238.9274,"MEAN_ANOMALY":120.8337,"EPHEMERIS_TYPE":0,"CLASSIFICATION_TYPE":"U","NORAD_CAT_ID":42758,"ELEMENT_SET_NO":999,"REV_AT_EPOCH":48261,"BSTAR":0.00040346,"MEAN_MOTION_DOT":8.111e-5,"MEAN_MOTION_DDOT":0}]
